OSCAR 7 (AO-7)          
1 07530U 74089B   26157.94104381 -.00000046  00000+0  45809-5 0  9995
2 07530 101.9901 171.0806 0012468 149.2351 327.1489 12.53697893359236
PHASE 3B (AO-10)        
1 14129U 83058B   26156.71565058 -.00000155  00000+0  00000+0 0  9998
2 14129  25.9038 221.4654 6014762 112.5116 319.5552  2.05872928295259
UOSAT 2 (UO-11)         
1 14781U 84021B   26157.68340787  .00001303  00000+0  13826-3 0  9999
2 14781  97.8052 123.3759 0006693 208.6330 151.4521 14.90757893255565
LUSAT (LO-19)           
1 20442U 90005G   26157.57710783  .00000130  00000+0  63146-4 0  9992
2 20442  98.8853 179.0901 0010612 234.2040 125.8157 14.34119987900877
EYESAT A (AO-27)        
1 22825U 93061C   26157.93082745  .00000105  00000+0  56820-4 0  9997
2 22825  98.6881 225.3477 0009344 126.4109 233.7936 14.30939557705533
ITAMSAT (IO-26)         
1 22826U 93061D   26157.63368579  .00000104  00000+0  56152-4 0  9994
2 22826  98.6828 224.9671 0010034 112.4178 247.8069 14.31365981705803
RADIO ROSTO (RS15)      
1 23439U 94085A   26157.82804746 -.00000037  00000+0  16114-3 0  9993
2 23439  64.8186 319.9701 0155631   5.7894 354.4784 11.27583599294730
JAS-2 (FO-29)           
1 24278U 96046B   26157.81233277 -.00000024  00000+0  81643-5 0  9995
2 24278  98.5249   8.1055 0350721 123.2843 240.2413 13.53273649471766
TECHSAT 1B (GO-32)      
1 25397U 98043D   26157.59817634  .00000069  00000+0  49896-4 0  9998
2 25397  99.0065 150.0898 0000464 193.9791 166.1374 14.24426350449827
ISS (ZARYA)             
1 25544U 98067A   26157.86947977  .00009276  00000+0  17237-3 0  9994
2 25544  51.6338 351.1688 0006977 142.0049 218.1433 15.49642340570157
PCSAT (NO-44)           
1 26931U 01043C   26157.61264853  .00000160  00000+0  90579-4 0  9995
2 26931  67.0513 271.6217 0006117 264.1922  95.8483 14.31952422288932
SAUDISAT 1C (SO-50)     
1 27607U 02058C   26157.70320938  .00001144  00000+0  15193-3 0  9991
2 27607  64.5504 161.4222 0075466 264.4088  94.8408 14.83024338262904
CUTE-1 (CO-55)          
1 27844U 03031E   26157.49994927  .00000321  00000+0  15775-3 0  9999
2 27844  98.6735 166.1932 0008851 210.1158 149.9513 14.24329258190151
CUBESAT XI-IV (CO-57)   
1 27848U 03031J   26157.55333329  .00000268  00000+0  13659-3 0  9992
2 27848  98.6767 165.9671 0008459 230.3427 129.7005 14.23615194189868
MOZHAETS 4 (RS22)       
1 27939U 03042A   26157.96658829  .00001529  00000+0  24368-3 0  9995
2 27939  98.3470 342.0369 0010237 306.2705 160.5208 14.73450983214043
CUBESAT XI-V            
1 28895U 05043F   26157.66697904  .00001638  00000+0  26546-3 0  9995
2 28895  98.2975 313.0688 0013037 235.8954 124.1016 14.72603733100207
CUTE-1.7+APD II (CO-65) 
1 32785U 08021C   26157.77451934  .00006623  00000+0  41855-3 0  9999
2 32785  97.8270 138.9776 0010425  69.3046 290.9298 15.09350971983628
SEEDS II (CO-66)        
1 32791U 08021J   26157.55833225  .00023420  00000+0  75009-3 0  9991
2 32791  97.7518 154.9517 0002601  35.3933 324.7480 15.32385592985663
YUBILEINY (RS30)        
1 32953U 08025A   26157.87775053 -.00000030  00000+0 -28575-3 0  9994
2 32953  82.5045   1.8542 0019299 337.0292  22.9923 12.43178630818418
KKS-1 (KISEKI)          
1 33499U 09002H   26157.79925389  .00001481  00000+0  18860-3 0  9991
2 33499  98.1193  80.0770 0007192 334.4433  25.6423 14.83097275934651
SWISSCUBE               
1 35932U 09051B   26156.46919883  .00001141  00000+0  23506-3 0  9990
2 35932  98.4043  64.1532 0005430 246.3597 113.7034 14.62458715887444
BEESAT-1                
1 35933U 09051C   26157.97853478  .00000904  00000+0  19130-3 0  9999
2 35933  98.3972  65.3456 0003893 257.6051 102.4714 14.61704086887695
ITUPSAT1                
1 35935U 09051E   26155.69953963  .00000958  00000+0  20796-3 0  9997
2 35935  98.4056  62.2366 0006134 280.9538  79.0971 14.60421767886916
XIWANG-1 (HOPE-1)       
1 36122U 09072B   26157.90800113  .00000272  00000+0  82931-3 0  9991
2 36122 100.4028 111.9048 0006769 257.5510 102.4846 13.16440458791657
O/OREOS (USA 219)       
1 37224U 10062C   26156.87810413  .00002979  00000+0  28689-3 0  9991
2 37224  71.9702 105.9546 0012370  87.8701 272.3886 14.93695134114951
JUGNU                   
1 37839U 11058B   26157.30783240  .00000452  00000+0  96537-4 0  9997
2 37839  19.9622  14.5210 0018503 316.3264 216.4094 14.13773989757485
SRMSAT                  
1 37841U 11058D   26157.27188351  .00000385  00000+0  65061-4 0  9991
2 37841  19.9704 125.5359 0011947  84.3565  18.6414 14.11573396756279
STRAND-1                
1 39090U 13009E   26157.75196471  .00000310  00000+0  11872-3 0  9990
2 39090  98.3920 338.2434 0007400 261.0768  98.9581 14.37157162695560
ZACUBE-1 (TSHEPISOSAT)  
1 39417U 13066B   26157.67555400  .00004996  00000+0  38849-3 0  9995
2 39417  97.8101 119.9558 0039962 284.7807  74.8990 15.01121821679152
GOMX-1                  
1 39430U 13066Q   26157.90370170  .00002123  00000+0  32248-3 0  9992
2 39430  97.6491 359.0151 0130122 110.2256 251.2997 14.69420648668400
